Reply,Label,Address,Street,City,State,Zip,Owner,,In CPC,,In Original,,Contributing,,Signed petitoin,,Sequence,
X,1,6800,LAKEWOOD BLVD,Dallas,TX,75214,DAVIS MICHAEL B & HOLLY S,,N,,Y,,Y,,N,,1,
O,2,6838,AVALON AVE,Dallas,TX,75214,BAKER TODD,,N,,Y,,N,,N,,2,
X,3,6827,AVALON AVE,Dallas,TX,75214,FENLAW JAY A & EMILY M,,N,,Y,,N,,N,,3,
X,4,6820,AVALON AVE,Dallas,TX,75214,HOLMES JOHN B & JEANETTE S,,N,,Y,,Y,,N,,4,
O,5,6808,AVALON AVE,Dallas,TX,75214,BARTON REVOCABLE TRUST,,N,,Y,,Y,,Y,,5,
X,6,6819,AVALON AVE,Dallas,TX,75214,CREWS KEVIN T & CHRISTINA S,,N,,Y,,N,,N,,6,
,7,6828,AVALON AVE,Dallas,TX,75214,SHERSTAD MATTHEW,,N,,Y,,Y,,N,,7,
O,8,6814,AVALON AVE,Dallas,TX,75214,FITZSIMMONS A GERALDINE REV TRUST,,N,,Y,,N,,N,,8,
X,9,6837,AVALON AVE,Dallas,TX,75214,CARLTON BRIAN,,N,,Y,,N,,N,,9,
X,10,6807,AVALON AVE,Dallas,TX,75214,SKIPWITH WALTER E ET AL,,N,,Y,,N,,N,,10,
O,11,6802,AVALON AVE,Dallas,TX,75214,CERVIN MARGARET EUGENIA,,N,,Y,,N,,Y,,11,
X,12,6858,AVALON AVE,Dallas,TX,75214,JOHNSTON RICHARD D &,,N,,Y,,Y,,N,,12,
,13,6850,AVALON AVE,Dallas,TX,75214,COX BARTON & MEGAN,,N,,Y,,N,,N,,13,
X,14,6844,AVALON AVE,Dallas,TX,75214,REGAN JOHN D &,,N,,Y,,N,,N,,14,
O,17,6953,WESTLAKE AVE,Dallas,TX,75214,BATTLE CHRISTY WILLIAMS,,Y,,Y,,N,,N,,15,
O,20,6933,WESTLAKE AVE,Dallas,TX,75214,Taxpayer at,,Y,,Y,,N,,N,,16,
O,22,6925,WESTLAKE AVE,Dallas,TX,75214,WALLACE DAVID BOWEN &,,Y,,Y,,Y,,N,,17,
O,23,6919,WESTLAKE AVE,Dallas,TX,75214,BLAIR LARRY & JANET L,,Y,,Y,,N,,N,,18,
O,24,6917,WESTLAKE AVE,Dallas,TX,75214,CASEY HOWARD KIRKMAN JR &,,Y,,Y,,N,,N,,19,
X,26,6907,WESTLAKE AVE,Dallas,TX,75214,RIDDLE CHRISTY CATHLEEN,,Y,,Y,,N,,N,,20,
,27,6903,WESTLAKE AVE,Dallas,TX,75214,MOZELEWSKI RACHAEL VICTORIA &,,Y,,Y,,Y,,N,,21,
O,29,6969,LAKEWOOD BLVD,Dallas,TX,75214,HALL MARK ALAN &,,Y,,Y,,Y,,N,,22,
O,30,6961,LAKEWOOD BLVD,Dallas,TX,75214,SWART WILLIAM E &,,Y,,Y,,N,,N,,23,
X,32,6954,WESTLAKE AVE,Dallas,TX,75214,DUTTON K GEORGE,,Y,,Y,,N,,N,,24,
O,33,6955,LAKEWOOD BLVD,Dallas,TX,75214,PORTERA JOSEPH CHARLES &,,Y,,Y,,N,,N,,25,
X,34,6949,LAKEWOOD BLVD,Dallas,TX,75214,SUBA CHRISTOPHER &,,Y,,Y,,N,,N,,26,
O,35,6950,WESTLAKE AVE,Dallas,TX,75214,TURLINGTON JEAN &,,Y,,Y,,N,,N,,27,
O,36,6946,WESTLAKE AVE,Dallas,TX,75214,BEEBY WILLIAM J &,,Y,,Y,,N,,N,,28,
X,37,6942,WESTLAKE AVE,Dallas,TX,75214,WORRELL CHRISTY ANN,,Y,,Y,,N,,N,,29,
O,38,6941,LAKEWOOD BLVD,Dallas,TX,75214,JOHNSON ROBERT CARL &,,Y,,Y,,N,,N,,30,
,39,6938,WESTLAKE AVE,Dallas,TX,75214,WAUSON RODNEY & JAMIE,,Y,,Y,,N,,N,,31,
X,40,6931,LAKEWOOD BLVD,Dallas,TX,75214,PAUL MARK,,Y,,Y,,N,,N,,32,
O,41,6921,LAKEWOOD BLVD,Dallas,TX,75214,MCMURPHY MATTHEW A &,,Y,,Y,,N,,N,,33,
O,43,6930,WESTLAKE AVE,Dallas,TX,75214,MACKINNON DOUGLAS P &,,Y,,Y,,N,,N,,34,
O,44,6915,LAKEWOOD BLVD,Dallas,TX,75214,MORENO JOHN & LISA,,Y,,Y,,Y,,N,,35,
O,45,6913,LAKEWOOD BLVD,Dallas,TX,75214,WENDEL GEORGE &,,Y,,Y,,N,,N,,36,
X,46,6911,LAKEWOOD BLVD,Dallas,TX,75214,VALEK TIMOTHY R & RENEE,,Y,,Y,,N,,N,,37,
X,47,6909,LAKEWOOD BLVD,Dallas,TX,75214,COLEMAN JEFFREY H &,,Y,,Y,,N,,N,,38,
X,48,6907,LAKEWOOD BLVD,Dallas,TX,75214,PRICE ELIZABETH M & JASON R,,Y,,Y,,Y,,N,,39,
O,50,6926,WESTLAKE AVE,Dallas,TX,75214,LARKIN BENJAMIN J & EMILY S,,Y,,Y,,N,,N,,40,
O,52,6918,WESTLAKE AVE,Dallas,TX,75214,PARRISH ANN C,,Y,,Y,,Y,,N,,41,
O,53,6914,WESTLAKE AVE,Dallas,TX,75214,MACDADE III WILLIAM H &,,Y,,Y,,N,,N,,42,
O,54,6912,WESTLAKE AVE,Dallas,TX,75214,SPAETH KEVIN J & STEFANIE D,,Y,,Y,,N,,N,,43,
X,55,6902,WESTLAKE AVE,Dallas,TX,75214,MANNING LELAND KENNETH &,,Y,,Y,,N,,N,,44,
O,56,6906,WESTLAKE AVE,Dallas,TX,75214,LEHNER ANTHONY D & MARY E,,Y,,Y,,Y,,N,,45,
O,57,6956,LAKEWOOD BLVD,Dallas,TX,75214,MADDOX MICHAEL & CAITLIN,,Y,,Y,,N,,N,,46,
O,60,6952,LAKEWOOD BLVD,Dallas,TX,75214,BUSH DAVID REMINGTON,,Y,,Y,,Y,,N,,47,
O,61,6951,LAKESHORE DR,Dallas,TX,75214,MCCONNELL JANE DEAN,,N,,Y,,Y,,N,,48,
X,62,6944,LAKEWOOD BLVD,Dallas,TX,75214,OMALLEY JUSTIN & ASHLEY,,Y,,Y,,N,,N,,49,
X,64,6941,LAKESHORE DR,Dallas,TX,75214,WALDREP JORDAN C & JAMIE L,,N,,Y,,N,,N,,50,
O,65,6936,LAKEWOOD BLVD,Dallas,TX,75214,BEARDEN DIANA JOSEPH,,Y,,Y,,N,,N,,51,
O,66,6930,LAKEWOOD BLVD,Dallas,TX,75214,TEASTER MICHAEL DALE &,,Y,,Y,,Y,,N,,52,
,67,6935,LAKESHORE DR,Dallas,TX,75214,RUGGERI ANTHONY JOSEPH,,N,,Y,,Y,,N,,53,
,68,6933,LAKESHORE DR,Dallas,TX,75214,MILBANK ROBERT JR,,N,,Y,,Y,,N,,54,
O,69,6926,LAKEWOOD BLVD,Dallas,TX,75214,DAVIS CHRISTIE CAROL FORD,,Y,,Y,,N,,N,,55,
O,70,6920,LAKEWOOD BLVD,Dallas,TX,75214,BAKER PITTS TOMMYE,,Y,,Y,,Y,,N,,56,
X,72,6915,LAKESHORE DR,Dallas,TX,75214,WHITE DAVID J & MARITA F,,N,,Y,,N,,N,,57,
O,73,6910,LAKEWOOD BLVD,Dallas,TX,75214,AWESOMETOWN LIVING TRUST,,Y,,Y,,Y,,N,,58,
X,74,6839,LAKEWOOD BLVD,Dallas,TX,75214,BANKLER CHRISTOPHER & AMY,,N,,Y,,N,,N,,59,
O,75,6834,LAKESHORE DR,Dallas,TX,75214,COLLINS DAVID E,,Y,,Y,,Y,,N,,60,
X,77,6862,BURWOOD LN,Dallas,TX,75214,JOHNSON ERIC W,,N,,N,,N,,N,,61,
,78,6843,LAKEWOOD BLVD,Dallas,TX,75214,MEADOW LAKE TRUST THE,,N,,Y,,N,,N,,62,
O,79,6861,LAKEWOOD BLVD,Dallas,TX,75214,POPE ZACHARY & LINDSAY,,Y,,Y,,Y,,N,,63,
X,80,6856,LAKESHORE DR,Dallas,TX,75214,RILEY JESSICA RAE,,Y,,Y,,N,,N,,64,
X,81,6848,LAKESHORE DR,Dallas,TX,75214,CARDENAS GREGORY ALLEN &,,Y,,Y,,N,,N,,65,
X,82,6840,LAKESHORE DR,Dallas,TX,75214,ADDISION FREDERICK W III,,Y,,Y,,N,,N,,66,
X,84,6957,TOKALON DR,Dallas,TX,75214,JESBERG GEOFFREY R &,,N,,Y,,N,,N,,67,
X,85,6956,LAKESHORE DR,Dallas,TX,75214,ELMER FRANK Z &,,N,,Y,,Y,,N,,68,
X,86,6952,LAKESHORE DR,Dallas,TX,75214,GUENVEUR WILLIAM & MARY,,N,,Y,,N,,N,,69,
X,87,6948,LAKESHORE DR,Dallas,TX,75214,MICHEL HAROLD &,,N,,Y,,N,,N,,70,
X,89,6944,LAKESHORE DR,Dallas,TX,75214,MCGUIRK CHRISTOPHER &,,N,,Y,,Y,,N,,71,
X,90,6935,TOKALON DR,Dallas,TX,75214,GARNER JOHN &,,N,,Y,,N,,N,,72,
O,91,6936,LAKESHORE DR,Dallas,TX,75214,KURZNER CHRISTOPHER &,,N,,Y,,Y,,N,,73,
O,92,6940,LAKESHORE DR,Dallas,TX,75214,REYNOLDS CRAIG S &,,N,,Y,,N,,N,,74,
X,94,6932,LAKESHORE DR,Dallas,TX,75214,ROBERTS SETH M & AMY O,,N,,Y,,N,,N,,75,
O,95,6921,TOKALON DR,Dallas,TX,75214,BAKER DELMAR DAVID III,,N,,Y,,N,,N,,76,
,96,6915,TOKALON DR,Dallas,TX,75214,KOHN JAMES S & GWEN L,,N,,Y,,N,,N,,77,
X,97,6909,TOKALON DR,Dallas,TX,75214,RUDNICKI KONRAD H & CAROLINE B,,N,,Y,,N,,N,,78,
X,98,6922,LAKESHORE DR,Dallas,TX,75214,PAREL STEPHEN M &,,N,,Y,,N,,N,,79,
X,99,6926,LAKESHORE DR,Dallas,TX,75214,SUKKAR RICHARD A  JR &,,N,,Y,,Y,,N,,80,
X,100,6916,LAKESHORE DR,Dallas,TX,75214,CAZALAS PAUL & ERIN W,,N,,Y,,Y,,N,,81,
X,101,6912,LAKESHORE DR,Dallas,TX,75214,PRICE TARA GAIL & JEFFREY LEE,,N,,Y,,Y,,N,,82,
,102,6875,TOKALON DR,Dallas,TX,75214,MCMILLAN MORGAN C &,,N,,Y,,Y,,N,,83,
X,104,6859,TOKALON DR,Dallas,TX,75214,CRISPIN SAMANTHA H &,,N,,Y,,N,,N,,84,
X,105,6968,TOKALON DR,Dallas,TX,75214,FARLEY FAMILY TRUST,,N,,Y,,N,,N,,85,
X,107,6960,TOKALON DR,Dallas,TX,75214,SATTERWHITE BRANDON N &,,N,,Y,,N,,N,,86,
,109,6942,TOKALON DR,Dallas,TX,75214,STAPLETON THOMAS DALE,,N,,Y,,N,,N,,87,
X,110,6934,TOKALON DR,Dallas,TX,75214,HARLOW DAN,,N,,Y,,Y,,N,,88,
,111,6926,TOKALON DR,Dallas,TX,75214,FUGATE BYPASS TRUST,,N,,Y,,N,,N,,89,
O,112,6918,TOKALON DR,Dallas,TX,75214,MALONE SIMMONE T,,N,,Y,,Y,,N,,90,
X,114,6910,TOKALON DR,Dallas,TX,75214,VITALE RICHARD H,,N,,Y,,N,,N,,91,
X,119,6832,LAKEWOOD BLVD,Dallas,TX,75214,MARTIN STEPHEN W & ASHLEY V,,N,,Y,,N,,N,,92,
O,120,6840,LAKEWOOD BLVD,Dallas,TX,75214,WALKER CINDY & RUDOLPH STEPHEN GEOFFRAY,,N,,Y,,Y,,N,,93,
X,130,7047,WESTLAKE AVE,Dallas,TX,75214,VOLNEY JOHN D & LORI W,,N,,Y,,N,,N,,94,
O,131,7011,WESTLAKE AVE,Dallas,TX,75214,KAZMIERSKI KENNETH E & ANGELA,,N,,Y,,N,,N,,95,
X,132,7039,WESTLAKE AVE,Dallas,TX,75214,COLEMAN ROBERT W & JUDITH,,N,,Y,,N,,N,,96,
,133,7007,WESTLAKE AVE,Dallas,TX,75214,LINCOLNSHIRE TRUST THE,,N,,Y,,N,,N,,97,
O,134,7031,WESTLAKE AVE,Dallas,TX,75214,HARVEY ARTHUR D &,,N,,Y,,N,,N,,98,
X,135,7027,WESTLAKE AVE,Dallas,TX,75214,CARTON PETER J JR & SUSAN D,,N,,Y,,N,,N,,99,
X,136,7022,WESTLAKE AVE,Dallas,TX,75214,AGUILERA TODD ANTHONY &,,N,,Y,,N,,N,,100,
X,138,7018,WESTLAKE AVE,Dallas,TX,75214,SISSELL ASHLEY GUIDRY &,,N,,Y,,N,,N,,101,
X,139,7014,WESTLAKE AVE,Dallas,TX,75214,BREEDLOVE JOHN H,,N,,Y,,Y,,N,,102,
X,140,7002,WESTLAKE AVE,Dallas,TX,75214,DELANGEL CESAR RAFAEL RAMIREZ &,,N,,Y,,N,,N,,103,
O,141,7032,WESTLAKE AVE,Dallas,TX,75214,CARDINAL REVOCABLE LIVING TRUST,,N,,Y,,N,,N,,104,
X,143,7040,WESTLAKE AVE,Dallas,TX,75214,PARKS DOROTHY RAVEN,,N,,Y,,N,,N,,105,
X,144,7010,WESTLAKE AVE,Dallas,TX,75214,MCCABE ASHLEY V & OWEN T,,N,,Y,,N,,N,,106,
X,145,7006,WESTLAKE AVE,Dallas,TX,75214,SANSONE BRYAN &,,N,,Y,,N,,N,,107,
O,146,7003,LAKEWOOD BLVD,Dallas,TX,75214,BRAASCH ANNA L &,,Y,,Y,,Y,,N,,108,
O,147,7007,LAKEWOOD BLVD,Dallas,TX,75214,VAUGHN RONALD & LINDA J,,Y,,Y,,Y,,N,,109,
O,148,7011,LAKEWOOD BLVD,Dallas,TX,75214,MARQUEZ OTTO J,,Y,,Y,,Y,,N,,110,
O,149,7015,LAKEWOOD BLVD,Dallas,TX,75214,GINSBORG JEANNE L 2020,,Y,,Y,,Y,,N,,111,
X,150,7019,LAKEWOOD BLVD,Dallas,TX,75214,HATCHETT NATALIE &,,Y,,Y,,Y,,N,,112,
O,151,7023,LAKEWOOD BLVD,Dallas,TX,75214,BUCHGRABER MARKUS & KAITLIN E,,Y,,Y,,Y,,N,,113,
O,152,7027,LAKEWOOD BLVD,Dallas,TX,75214,MCCOMBS STEVE H,,Y,,Y,,Y,,N,,114,
O,153,7031,LAKEWOOD BLVD,Dallas,TX,75214,LOVELAND DAVID W &,,Y,,Y,,Y,,N,,115,
O,154,7035,LAKEWOOD BLVD,Dallas,TX,75214,LERMA PEDRO JR &,,Y,,Y,,Y,,N,,116,
O,156,7006,LAKEWOOD BLVD,Dallas,TX,75214,LISEMBY GREGORY W &,,Y,,Y,,N,,N,,117,
X,157,7010,LAKEWOOD BLVD,Dallas,TX,75214,MOSELEY CHRISTOPHER T &,,Y,,Y,,N,,N,,118,
O,158,7012,LAKEWOOD BLVD,Dallas,TX,75214,BUFKIN EMMA DORIS B,,Y,,Y,,N,,N,,119,
O,159,7018,LAKEWOOD BLVD,Dallas,TX,75214,PARKS SCOTT THOMAS &,,Y,,Y,,N,,N,,120,
O,160,7022,LAKEWOOD BLVD,Dallas,TX,75214,SCROPPO ALEXANDER C,,Y,,Y,,Y,,N,,121,
O,161,7026,LAKEWOOD BLVD,Dallas,TX,75214,BEASLEY MARK V & LINDA A,,Y,,Y,,Y,,N,,122,
O,162,7030,LAKEWOOD BLVD,Dallas,TX,75214,KENNEDY TERRI REVOCABLE TRUST,,Y,,Y,,N,,N,,123,
O,164,7038,LAKEWOOD BLVD,Dallas,TX,75214,COX AMANDA MCDANIEL &,,Y,,Y,,Y,,N,,124,
X,165,7039,LAKESHORE DR,Dallas,TX,75214,KRAFT ERIC L & AMY K,,Y,,Y,,Y,,N,,125,
,166,7035,LAKESHORE DR,Dallas,TX,75214,COFFIN KENNETH G &,,Y,,Y,,N,,N,,126,
X,167,7031,LAKESHORE DR,Dallas,TX,75214,MARTIN STEPHEN W II & ASHLEY V,,Y,,Y,,N,,N,,127,
X,169,7021,LAKESHORE DR,Dallas,TX,75214,EVANS JOSEPH & ELIZABETH,,Y,,Y,,N,,N,,128,
O,170,7017,LAKESHORE DR,Dallas,TX,75214,MOORE DONALD C & CATHY G,,Y,,Y,,N,,N,,129,
O,171,7015,LAKESHORE DR,Dallas,TX,75214,EARLY ANN,,Y,,Y,,N,,N,,130,
O,174,7001,LAKESHORE DR,Dallas,TX,75214,Taxpayer at,,Y,,Y,,N,,N,,131,
O,175,2716,WEST SHORE DR,Dallas,TX,75214,SIFERT TODD,,Y,,Y,,Y,,N,,132,
X,176,7000,LAKESHORE DR,Dallas,TX,75214,SMITH DARRELL,,Y,,Y,,Y,,N,,133,
O,177,7008,LAKESHORE DR,Dallas,TX,75214,TIMMS CYNTHIA & EDWARD G,,Y,,Y,,N,,N,,134,
O,178,7012,LAKESHORE DR,Dallas,TX,75214,THARP JASON & KELLI,,Y,,Y,,N,,N,,135,
X,179,7016,LAKESHORE DR,Dallas,TX,75214,IRSCH CHARLES &,,Y,,Y,,N,,N,,136,
O,180,7022,LAKESHORE DR,Dallas,TX,75214,CHEEK JEFFREY M & ELIZABETH,,Y,,Y,,N,,N,,137,
X,181,7028,LAKESHORE DR,Dallas,TX,75214,TRENT MATTHEW J & LORI E,,Y,,Y,,N,,N,,138,
O,182,7034,LAKESHORE DR,Dallas,TX,75214,MICHAEL E GUZIEJKA 2011 GIFT TRUST THE,,Y,,Y,,N,,N,,139,
O,184,7047,TOKALON DR,Dallas,TX,75214,MCEACHERN REVOCABLE,,Y,,Y,,Y,,N,,140,
O,186,7031,TOKALON DR,Dallas,TX,75214,REED MICHAEL J &,,Y,,Y,,Y,,N,,141,
,187,7031,TOKALON DR,Dallas,TX,75214,ENSERCH CORP,,X,,X,,Y,,N,,142,
O,188,7027,TOKALON DR,Dallas,TX,75214,BAKER JON A & LAURA J,,Y,,Y,,Y,,N,,143,
O,189,7023,TOKALON DR,Dallas,TX,75214,COWAN STAN R &,,Y,,Y,,Y,,N,,144,
X,190,7011,TOKALON DR,Dallas,TX,75214,CANELAKES ALEXANDRIA,,Y,,Y,,N,,N,,145,
X,191,7007,TOKALON DR,Dallas,TX,75214,DAMERAU FAMILY LIVING,,Y,,Y,,N,,N,,146,
X,192,7003,TOKALON DR,Dallas,TX,75214,CHAVEZ CHARLES RAY,,Y,,Y,,N,,N,,147,
X,193,7100,LAKESHORE DR,Dallas,TX,75214,SAWYER KAREN & BRANDON,,Y,,Y,,N,,N,,148,
O,194,7110,LAKESHORE DR,Dallas,TX,75214,KIDD ROBERT E JR & GINA W,,Y,,Y,,N,,N,,149,
O,195,7102,LAKEWOOD BLVD,Dallas,TX,75214,MCNEILL CHRISTOPHER MILLS,,Y,,Y,,N,,N,,150,
X,196,7106,LAKEWOOD BLVD,Dallas,TX,75214,DEFT CHEVRON REV TRUST,,Y,,Y,,N,,N,,151,
O,197,7110,LAKEWOOD BLVD,Dallas,TX,75214,CONNER TERRY W,,Y,,Y,,N,,N,,152,
X,198,7114,LAKEWOOD BLVD,Dallas,TX,75214,Taxpayer at,,Y,,Y,,Y,,N,,153,
O,199,7118,LAKEWOOD BLVD,Dallas,TX,75214,MURPHY JANISE BROWN,,Y,,Y,,Y,,N,,154,
,201,6,HEATH ST,Dallas,TX,75214,WHITE JOHN T,,X,,X,,N,,N,,155,
X,203,7123,LAKESHORE DR,Dallas,TX,75214,PATRAGREENE JESSICA ERINN LA &,,Y,,Y,,N,,N,,156,
O,204,7119,LAKESHORE DR,Dallas,TX,75214,MCCUE WOLFORD & CHERYL K,,Y,,Y,,Y,,N,,157,
O,205,7115,LAKESHORE DR,Dallas,TX,75214,PADILLA MARLON D &,,Y,,Y,,N,,N,,158,
O,206,7107,LAKESHORE DR,Dallas,TX,75214,GONZALEZ JUAN F,,Y,,Y,,N,,N,,159,
O,208,7210,LAKEWOOD BLVD,Dallas,TX,75214,PERRY JOHN & CAROL C,,N,,Y,,Y,,N,,160,
,209,7214,LAKEWOOD BLVD,Dallas,TX,75214,BROWN ELI,,N,,Y,,N,,N,,161,
X,210,7226,LAKEWOOD BLVD,Dallas,TX,75214,CORREA PEDRO & JENNIFER,,N,,Y,,N,,N,,162,
O,211,7234,LAKEWOOD BLVD,Dallas,TX,75214,MILLER DAVID S,,N,,Y,,N,,N,,163,
X,212,7237,TOKALON DR,Dallas,TX,75214,SPRADLIN STEPHEN LEE &,,N,,Y,,Y,,N,,164,
X,213,7231,TOKALON DR,Dallas,TX,75214,FINE LAUREN CORTELL &,,N,,Y,,N,,N,,165,
O,214,7227,TOKALON DR,Dallas,TX,75214,Taxpayer at,,N,,Y,,Y,,N,,166,
,215,7221,TOKALON DR,Dallas,TX,75214,ORDONEZSANCHEZ JOSE CAMILO,,N,,Y,,N,,N,,167,
X,216,7215,TOKALON DR,Dallas,TX,75214,BORUFF ROBERT E TR,,N,,Y,,Y,,N,,168,
O,217,7211,TOKALON DR,Dallas,TX,75214,HENRY SARAH CORINA,,N,,Y,,N,,N,,169,
O,218,7205,TOKALON DR,Dallas,TX,75214,CHAMBERS SUE ELLEN,,N,,Y,,Y,,N,,170,
X,219,7103,LAKEWOOD BLVD,Dallas,TX,75214,YOUNG JOHN D III &,,Y,,Y,,N,,N,,171,
X,220,7107,LAKEWOOD BLVD,Dallas,TX,75214,STUART JOHN L IV,,Y,,Y,,N,,N,,172,
O,221,7111,LAKEWOOD BLVD,Dallas,TX,75214,GALVIN PAUL E ETAL,,Y,,Y,,Y,,N,,173,
X,223,7203,LAKEWOOD BLVD,Dallas,TX,75214,OAKLAWN RENTALS LLC,,Y,,Y,,Y,,N,,174,
,224,7207,LAKEWOOD BLVD,Dallas,TX,75214,BLUM ROSA EST OF,,Y,,Y,,Y,,N,,175,
X,227,7223,LAKEWOOD BLVD,Dallas,TX,75214,STABENOW JASON & STACEY,,Y,,Y,,N,,N,,176,
X,229,7231,LAKEWOOD BLVD,Dallas,TX,75214,HARRIS STEVEN A &,,Y,,Y,,N,,N,,177,
O,230,7235,LAKEWOOD BLVD,Dallas,TX,75214,VELA JASON & MELISSA JO,,Y,,Y,,N,,N,,178,
X,231,7239,LAKEWOOD BLVD,Dallas,TX,75214,SCARBROUGH WILLIAM D &,,Y,,Y,,N,,N,,179,
O,232,7303,LAKEWOOD BLVD,Dallas,TX,75214,NICHOLS DOUGLAS R &,,Y,,Y,,Y,,N,,180,
O,233,7307,LAKEWOOD BLVD,Dallas,TX,75214,WHITCOMB JASON & ANA,,Y,,Y,,Y,,N,,181,
X,234,7311,LAKEWOOD BLVD,Dallas,TX,75214,KASPAR JOHN,,Y,,Y,,Y,,N,,182,
O,235,7315,LAKEWOOD BLVD,Dallas,TX,75214,CULP LAURA J,,Y,,Y,,Y,,N,,183,
O,236,7319,LAKEWOOD BLVD,Dallas,TX,75214,GOLDEN NAN L,,Y,,Y,,Y,,N,,184,
O,237,7323,LAKEWOOD BLVD,Dallas,TX,75214,PARKER JANE HARVEY,,Y,,Y,,Y,,N,,185,
O,238,7327,LAKEWOOD BLVD,Dallas,TX,75214,WILLISBROWN ANN HILLARY,,Y,,Y,,Y,,N,,186,
,239,7335,LAKEWOOD BLVD,Dallas,TX,75214,FAIREY JEFF T,,Y,,Y,,Y,,N,,187,
,240,7331,LAKEWOOD BLVD,Dallas,TX,75214,HUTSELL Q2 LLC,,Y,,Y,,Y,,N,,188,
O,241,7339,LAKEWOOD BLVD,Dallas,TX,75214,WOODWARD ANNETTE,,Y,,Y,,N,,N,,189,
X,242,7302,LAKEWOOD BLVD,Dallas,TX,75214,MCDANIEL WILLIAM & ALLISON,,N,,Y,,N,,N,,190,
X,243,7330,LAKEWOOD BLVD,Dallas,TX,75214,HUGHES TIMOTHY S & SUSAN NIXON,,N,,Y,,N,,N,,191,
X,244,7320,LAKEWOOD BLVD,Dallas,TX,75214,BEGLEY KEEGAN A & VALERIE ANN,,N,,Y,,N,,N,,192,
X,245,7316,LAKEWOOD BLVD,Dallas,TX,75214,FITZGERALD LAUREL &,,N,,Y,,N,,N,,193,
O,246,7326,LAKEWOOD BLVD,Dallas,TX,75214,HOLDEN LAURA A & STEVEN E,,N,,Y,,N,,N,,194,
,247,7310,LAKEWOOD BLVD,Dallas,TX,75214,HAGLIN PRESTON J & DONNA K,,N,,Y,,N,,N,,195,
X,249,7307,TOKALON DR,Dallas,TX,75214,HERMANWATSON TRUST,,N,,Y,,N,,N,,196,
X,250,7004,TOKALON DR,Dallas,TX,75214,MASON DANA L,,Y,,Y,,N,,N,,197,
O,251,7048,TOKALON DR,Dallas,TX,75214,PINKSTON SAMUEL &,,Y,,Y,,N,,N,,198,
O,254,7026,TOKALON DR,Dallas,TX,75214,BLANCHARD SARAH &,,Y,,Y,,N,,N,,199,
X,255,7030,TOKALON DR,Dallas,TX,75214,DOLSON JED A &,,Y,,Y,,Y,,N,,200,
X,257,7134,TOKALON DR,Dallas,TX,75214,KADANE EDWARD G II,,N,,Y,,N,,N,,201,
X,258,7206,TOKALON DR,Dallas,TX,75214,COHN JULIE &,,N,,Y,,N,,N,,202,
O,259,7220,TOKALON DR,Dallas,TX,75214,NORTON DAVID T & MARTHA B,,N,,Y,,N,,N,,203,
X,264,6949,LAKESHORE DR,Dallas,TX,75214,YOST HARVEY D III,,N,,Y,,N,,N,,204,
O,266,6902,LAKESHORE DR,Dallas,TX,75214,NIEMYSKI FAMILY TRUST,,N,,Y,,N,,N,,205,
X,267,6908,LAKESHORE DR,Dallas,TX,75214,THEISEN ALETHIA MARTIN,,N,,Y,,N,,N,,206,
X,269,7015,TOKALON DR,Dallas,TX,75214,SCHOELLKOPF WILSON W & LYMDE J,,N,,Y,,N,,N,,207,
O,271,7238,LAKEWOOD BLVD,Dallas,TX,75214,SCHMIDT DOUGLAS R &,,N,,Y,,N,,N,,208,
X,272,7242,LAKEWOOD BLVD,Dallas,TX,75214,DEGEYTER BROCK MICHAEL &,,N,,Y,,N,,N,,209,
X,273,7218,LAKEWOOD BLVD,Dallas,TX,75214,DAVIS ERIC D & SHEA,,N,,Y,,Y,,N,,210,
X,274,7243,TOKALON DR,Dallas,TX,75214,MACHANNAFORD JUAN C &,,N,,Y,,N,,N,,211,
O,276,7044,TOKALON DR,Dallas,TX,75214,BEVERS JOSEPH III,,N,,Y,,N,,N,,212,
O,277,6748,AVALON AVE,Dallas,TX,75214,GOGA REVOCABLE TRUST,,N,,N,,N,,N,,213,
,278,6752,AVALON AVE,Dallas,TX,75214,FREEMAN CHRIS & BLIS,,N,,N,,N,,N,,214,
,279,6758,AVALON AVE,Dallas,TX,75214,COURTWRIGHT JEFFRY T &,,N,,N,,N,,N,,215,
,280,6757,GASTON AVE,Dallas,TX,75214,GUAJARDO DONNA,,N,,N,,N,,N,,216,
,281,6751,GASTON AVE,Dallas,TX,75214,KLEIN ERIC & CLAIRE,,N,,N,,N,,N,,217,
X,282,2301,BRENDENWOOD DR,Dallas,TX,75214,QUIMBY AUSTIN & EMILY,,N,,N,,N,,N,,218,
O,283,6748,LAKEWOOD BLVD,Dallas,TX,75214,LAKEWOOD TRUST THE,,N,,N,,N,,N,,219,
,284,6759,AVALON AVE,Dallas,TX,75214,SULLIVAN JOSEPH W &,,N,,N,,N,,N,,220,
O,285,2417,BRENDENWOOD DR,Dallas,TX,75214,MEREDITH MATTHEW CHARLES &,,N,,N,,N,,N,,221,
O,286,6753,AVALON AVE,Dallas,TX,75214,LITTLE LOUIE E JR &,,N,,N,,N,,N,,222,
O,287,6745,AVALON AVE,Dallas,TX,75214,CRUME CARTER L & NANCY L,,N,,N,,N,,N,,223,
X,288,6803,LAKEWOOD BLVD,Dallas,TX,75214,JACKSON WILLIAM K,,N,,N,,N,,N,,224,
O,289,6729,LAKEWOOD BLVD,Dallas,TX,75214,CARLSON DAVID,,N,,N,,N,,N,,225,
O,290,6725,LAKEWOOD BLVD,Dallas,TX,75214,ZAJICEK HUBERT & SARA,,N,,N,,N,,N,,226,
O,291,6815,LAKEWOOD BLVD,Dallas,TX,75214,HORTON TONY L,,N,,N,,N,,N,,227,
,292,6804,LORNA LN,Dallas,TX,75214,LASSITER ROBERT CALEN &,,N,,N,,N,,N,,228,
,293,6840,LORNA LN,Dallas,TX,75214,SNELLGROVE SIMON,,N,,N,,N,,N,,229,
X,294,6834,LORNA LN,Dallas,TX,75214,BARFIELD BLAKE D & JESSICA M,,N,,N,,N,,N,,230,
,295,6830,LORNA LN,Dallas,TX,75214,MEYER DANIEL J &,,N,,N,,N,,N,,231,
,296,6826,LORNA LN,Dallas,TX,75214,EVERT ELISABETH A,,N,,N,,N,,N,,232,
,297,6818,LORNA LN,Dallas,TX,75214,LEAKE SAM S & ASHLEY,,N,,N,,N,,N,,233,
,298,6814,LORNA LN,Dallas,TX,75214,BARION PERNILLE J,,N,,N,,N,,N,,234,
O,299,6805,LORNA LN,Dallas,TX,75214,CAMERON CHRISTOPHER M &,,N,,N,,N,,N,,235,
X,300,6811,LORNA LN,Dallas,TX,75214,BARNICOAT SUSAN B,,N,,N,,N,,N,,236,
O,301,6815,LORNA LN,Dallas,TX,75214,SKIPWORTH LIVING TRUST,,N,,N,,N,,N,,237,
,302,6819,LORNA LN,Dallas,TX,75214,CROPPER CAROLYN,,N,,N,,N,,N,,238,
O,303,6827,LORNA LN,Dallas,TX,75214,GARD JOHN  &,,N,,N,,N,,N,,239,
,304,6831,LORNA LN,Dallas,TX,75214,WITMEYER ROBERT JOHN &,,N,,N,,N,,N,,240,
O,305,6835,LORNA LN,Dallas,TX,75214,RHYNE TAYLOR &,,N,,N,,N,,N,,241,
X,306,6843,LORNA LN,Dallas,TX,75214,GREGORY JOSHUA ALAN &,,N,,N,,N,,N,,242,
,307,2343,PICKENS ST,Dallas,TX,75214,M & H SMITH FAMILY TRUST,,N,,N,,N,,N,,243,
O,308,6847,AVALON AVE,Dallas,TX,75214,WHEATLEY JAMES LYNN &,,N,,N,,N,,N,,244,
,309,6851,AVALON AVE,Dallas,TX,75214,HEARD CHARLES R EST OF,,N,,N,,N,,N,,245,
O,310,6859,AVALON AVE,Dallas,TX,75214,BAUM MICHAEL L & CHRISTELL M,,N,,N,,N,,N,,246,
X,311,6867,AVALON AVE,Dallas,TX,75214,MCDONALD JOHN P,,N,,N,,N,,N,,247,
O,312,6846,LORNA LN,Dallas,TX,75214,DALISE MATTHEW D,,N,,N,,N,,N,,248,
,313,6851,LORNA LN,Dallas,TX,75214,RUBIO SHANNON,,N,,N,,N,,N,,249,
,314,6857,LORNA LN,Dallas,TX,75214,KNOCK THOMAS J & SELLERS GEORGE D,,N,,N,,N,,N,,250,
,315,6865,LORNA LN,Dallas,TX,75214,OATMAN TRENT & MADISON WALKER,,N,,N,,N,,N,,251,
X,316,6872,BURWOOD LN,Dallas,TX,75214,ELLIS THOMAS G III & DEBBIE M,,N,,N,,N,,N,,252,
,317,6866,BURWOOD LN,Dallas,TX,75214,MILLER SAMUEL JOHN &,,N,,N,,N,,N,,253,
O,318,6858,BURWOOD LN,Dallas,TX,75214,ANASTOPULOS PETER &,,N,,N,,N,,N,,254,
,319,6863,BURWOOD LN,Dallas,TX,75214,DYKE GARY &,,N,,N,,N,,N,,255,
,320,6869,BURWOOD LN,Dallas,TX,75214,RAY IAN G,,N,,N,,N,,N,,256,
X,321,6879,BURWOOD LN,Dallas,TX,75214,JOHNSON ALEEN,,N,,N,,N,,N,,257,
,322,6883,BURWOOD LN,Dallas,TX,75214,WALKUP JAMES O &,,N,,N,,N,,N,,258,
,323,6890,AVALON AVE,Dallas,TX,75214,GRAYBILL ANDREW R &,,N,,N,,N,,N,,259,
,324,6882,AVALON AVE,Dallas,TX,75214,MAAS ERIC & SHERYL,,N,,N,,N,,N,,260,
,325,6878,AVALON AVE,Dallas,TX,75214,INGRAM KELLY,,N,,N,,N,,N,,261,
X,326,6874,AVALON AVE,Dallas,TX,75214,CARUSO TODD M & EMILY E,,N,,N,,N,,N,,262,
,327,6875,AVALON AVE,Dallas,TX,75214,MCMULLEN COREY ALAN &,,N,,N,,N,,N,,263,
,328,6879,AVALON AVE,Dallas,TX,75214,BROOKS JILL BUFFINGTON,,N,,N,,N,,N,,264,
,329,6891,AVALON AVE,Dallas,TX,75214,HOFFMAN DAVID & CORINNE,,N,,N,,N,,N,,265,
,330,2519,AUBURN AVE,Dallas,TX,75214,RIVERA ROY &  NORMA C,,N,,N,,N,,N,,266,
O,331,2525,AUBURN AVE,Dallas,TX,75214,BOZARTH JOEL J,,N,,N,,N,,N,,267,
,332,2527,AUBURN AVE,Dallas,TX,75214,NEUWELT SIMONE A,,N,,N,,N,,N,,268,
,333,2531,AUBURN AVE,Dallas,TX,75214,JONES GEORGE R JR,,N,,N,,N,,N,,269,
,334,6903,PASADENA AVE,Dallas,TX,75214,YOUNG JIM B,,N,,N,,N,,N,,270,
O,335,6907,PASADENA AVE,Dallas,TX,75214,PRIETO DANIEL BRANDON &,,N,,N,,N,,N,,271,
,336,6911,PASADENA AVE,Dallas,TX,75214,ANTHONY JOHN ROSS &,,N,,N,,N,,N,,272,
,337,6915,PASADENA AVE,Dallas,TX,75214,NEELY EDWIN S & SUZANNE R,,N,,N,,N,,N,,273,
X,338,6919,PASADENA AVE,Dallas,TX,75214,SHOPE GARY,,N,,N,,N,,N,,274,
,339,6923,PASADENA AVE,Dallas,TX,75214,GARRETT BRECK &,,N,,N,,N,,N,,275,
,340,6927,PASADENA AVE,Dallas,TX,75214,FAGUNDES ARMANDO & DANIELA Z,,N,,N,,N,,N,,276,
,341,6931,PASADENA AVE,Dallas,TX,75214,SMITH WYATT &,,N,,N,,N,,N,,277,
,342,6935,PASADENA AVE,Dallas,TX,75214,FLAHERTY PHILIP & SONIA,,N,,N,,N,,N,,278,
,343,6939,PASADENA AVE,Dallas,TX,75214,LANIER ROBERT A & DAYO N,,N,,N,,N,,N,,279,
O,344,7002,PASADENA AVE,Dallas,TX,75214,PENSON LIVING TRUST,,N,,N,,N,,N,,280,
X,345,7006,PASADENA AVE,Dallas,TX,75214,BRICKER RYAN E & JAMIE L,,N,,N,,N,,N,,281,
,346,7010,PASADENA AVE,Dallas,TX,75214,GOODGION BRYAN & LINDSEY HERNDON,,N,,N,,N,,N,,282,
X,347,7001,PASADENA AVE,Dallas,TX,75214,HILDEBRAND BRETT WILLIAM &,,N,,N,,N,,N,,283,
O,348,7007,PASADENA AVE,Dallas,TX,75214,CALLAHAN DANIEL LEE,,N,,N,,N,,N,,284,
,349,7011,PASADENA AVE,Dallas,TX,75214,HAAS CHRISTOPHER M,,N,,N,,N,,N,,285,
,350,7015,PASADENA AVE,Dallas,TX,75214,CHERONES ALEXANDER W &,,N,,N,,N,,N,,286,
O,351,7019,PASADENA AVE,Dallas,TX,75214,CHAGAN ANAND & POONAM A DAHYA,,N,,N,,N,,N,,287,
,352,7023,PASADENA AVE,Dallas,TX,75214,MCCUTCHAN ROBERT D &,,N,,N,,N,,N,,288,
X,353,7027,PASADENA AVE,Dallas,TX,75214,NINOS PAMELA FIERRO,,N,,N,,N,,N,,289,
O,354,7031,PASADENA AVE,Dallas,TX,75214,GERBER ROBERT & TRACY,,N,,N,,N,,N,,290,
,355,7035,PASADENA AVE,Dallas,TX,75214,BARNARD CLARK & CARRIE,,N,,N,,N,,N,,291,
,356,7039,PASADENA AVE,Dallas,TX,75214,NIXON CHARLES T & HELEN,,N,,N,,N,,N,,292,
O,357,7043,PASADENA AVE,Dallas,TX,75214,STRAUB THOMAS BRADLEY,,N,,N,,N,,N,,293,
,358,7047,PASADENA AVE,Dallas,TX,75214,WILLIAMS DAWSON M &,,N,,N,,N,,N,,294,
,359,7051,PASADENA AVE,Dallas,TX,75214,GILBREATH ROBERT B &,,N,,N,,N,,N,,295,
,360,7055,PASADENA AVE,Dallas,TX,75214,PILLIGRATH RALF,,N,,N,,N,,N,,296,
O,361,6942,MEADOW LAKE AVE,Dallas,TX,75214,STEPHAN MARK P &,,N,,N,,N,,N,,297,
,362,6938,MEADOW LAKE AVE,Dallas,TX,75214,HUMPHREYS RANDY GLYNN II &,,N,,N,,N,,N,,298,
O,364,6930,MEADOW LAKE AVE,Dallas,TX,75214,RAGAN ADAM COREY &,,N,,N,,N,,N,,299,
,365,6926,MEADOW LAKE AVE,Dallas,TX,75214,MESTRE JOSEPH BROOK &,,N,,N,,N,,N,,300,
,366,6922,MEADOW LAKE AVE,Dallas,TX,75214,MAYMIR JAVIER A &,,N,,N,,N,,N,,301,
X,367,6918,MEADOW LAKE AVE,Dallas,TX,75214,MOATES CAMERON C & MEGAN M,,N,,N,,N,,N,,302,
,368,6914,MEADOW LAKE AVE,Dallas,TX,75214,SMITH SCOTT,,N,,N,,N,,N,,303,
,369,6910,MEADOW LAKE AVE,Dallas,TX,75214,COLLINS SCOTT &,,N,,N,,N,,N,,304,
O,370,6908,MEADOW LAKE AVE,Dallas,TX,75214,WHITE BRANDON & ASHLEY,,N,,N,,N,,N,,305,
O,371,6906,MEADOW LAKE AVE,Dallas,TX,75214,ADROVIC ARMIN &,,N,,N,,N,,N,,306,
,372,6904,MEADOW LAKE AVE,Dallas,TX,75214,JOSEPHANKIS CHRISTIANA &,,N,,N,,N,,N,,307,
,373,6902,MEADOW LAKE AVE,Dallas,TX,75214,CLAYTON CARISA M,,N,,N,,N,,N,,308,
,374,6900,MEADOW LAKE AVE,Dallas,TX,75214,FARMER WILLIAM JAMES &,,N,,N,,N,,N,,309,
,375,2426,PICKENS ST,Dallas,TX,75214,CORTEZ NATHAN G,,N,,N,,N,,N,,310,
,376,2425,PICKENS ST,Dallas,TX,75214,GSM REVOCABLE TRUST,,N,,N,,N,,N,,311,
O,377,2429,PICKENS ST,Dallas,TX,75214,PRIEST CHAD E &,,N,,N,,N,,N,,312,
,378,6854,WESTLAKE AVE,Dallas,TX,75214,ANTHONY JAMES L &,,N,,Y,,N,,N,,313,
,379,6862,WESTLAKE AVE,Dallas,TX,75214,COULTER ERNEST C,,N,,Y,,N,,N,,314,
,380,6868,WESTLAKE AVE,Dallas,TX,75214,VAUGHN  GRACE E,,N,,Y,,N,,N,,315,
,381,2923,WENDOVER RD,Dallas,TX,75214,MARTIN LINDA R,,N,,N,,N,,N,,316,
O,382,7000,MEADOW LAKE AVE,Dallas,TX,75214,MITCHELL HARVEY R &,,N,,N,,N,,N,,317,
X,383,7008,MEADOW LAKE AVE,Dallas,TX,75214,HOLT JORDAN & DOLLY,,N,,N,,N,,N,,318,
O,384,7014,MEADOW LAKE AVE,Dallas,TX,75214,MCFADDEN RUSSELL N & KELLY P,,N,,N,,N,,N,,319,
O,385,7018,MEADOW LAKE AVE,Dallas,TX,75214,MOSELEY ROBERT G &,,N,,N,,N,,N,,320,
,386,7022,MEADOW LAKE AVE,Dallas,TX,75214,WAN JASON MAX HERITAGE TRUST,,N,,N,,N,,N,,321,
X,387,7028,MEADOW LAKE AVE,Dallas,TX,75214,GAINES CARLY J &,,N,,N,,N,,N,,322,
,388,7032,MEADOW LAKE AVE,Dallas,TX,75214,OWENS JEB J & MARIA V,,N,,N,,N,,N,,323,
O,389,7038,MEADOW LAKE AVE,Dallas,TX,75214,STRONG BRADLEY DAVID & LILY HSU,,N,,N,,N,,N,,324,
X,390,7048,MEADOW LAKE AVE,Dallas,TX,75214,HILKMANN DIRK H &,,N,,N,,N,,N,,325,
,391,7103,WESTLAKE AVE,Dallas,TX,75214,MACY MARK A,,N,,N,,N,,N,,326,
X,392,7109,WESTLAKE AVE,Dallas,TX,75214,ECKIAN PHILIP M &,,N,,N,,N,,N,,327,
,393,7115,WESTLAKE AVE,Dallas,TX,75214,WATSON COLIN & KERRI,,N,,N,,N,,N,,328,
,394,7121,WESTLAKE AVE,Dallas,TX,75214,BENNETT MICHAEL R,,N,,N,,N,,N,,329,
X,395,7129,WESTLAKE AVE,Dallas,TX,75214,GLENN GAVIN & MARY,,N,,N,,N,,N,,330,
,396,7102,MEADOW LAKE AVE,Dallas,TX,75214,HANSEN ERIK WILLIAM &,,N,,N,,N,,N,,331,
,397,7106,MEADOW LAKE AVE,Dallas,TX,75214,PETROL WALTER MATTHEW,,N,,N,,N,,N,,332,
O,398,7200,WESTLAKE AVE,Dallas,TX,75214,DIX ROBERT M & JENNIFER DAWN,,N,,N,,N,,N,,333,
,399,7214,WESTLAKE AVE,Dallas,TX,75214,MCDANIEL KATHLEEN SUE,,N,,N,,N,,N,,334,
,400,7218,WESTLAKE AVE,Dallas,TX,75214,JOUBRAN BREEANNA KATHLEEN &,,N,,N,,N,,N,,335,
X,401,7224,WESTLAKE AVE,Dallas,TX,75214,TAYLOR LISA L,,N,,N,,N,,N,,336,
,402,7230,WESTLAKE AVE,Dallas,TX,75214,CONSIDINE CAROL,,N,,N,,N,,N,,337,
X,403,7236,WESTLAKE AVE,Dallas,TX,75214,KRITZ STACIE & KENNETH,,N,,N,,N,,N,,338,
,404,7244,WESTLAKE AVE,Dallas,TX,75214,MYERS JAMES &,,N,,N,,N,,N,,339,
O,405,7144,WESTLAKE AVE,Dallas,TX,75214,EVANS ADAM & CHRISTY,,N,,N,,N,,N,,340,
,406,7140,WESTLAKE AVE,Dallas,TX,75214,CORCORAN RONALD J JR &,,N,,N,,N,,N,,341,
,407,7134,WESTLAKE AVE,Dallas,TX,75214,HERRMANN CHRIS &,,N,,N,,N,,N,,342,
,408,7128,WESTLAKE AVE,Dallas,TX,75214,BLACK EVAN R & XIMENEZ ELISA C,,N,,N,,N,,N,,343,
X,409,7124,WESTLAKE AVE,Dallas,TX,75214,GRIFFITHS BARRY E & DONNA J W,,N,,N,,N,,N,,344,
,410,7118,WESTLAKE AVE,Dallas,TX,75214,BOB & BRETT MORELL LIVING TRUST,,N,,N,,N,,N,,345,
X,411,7110,WESTLAKE AVE,Dallas,TX,75214,KOHL DAVID JOHN &,,N,,N,,N,,N,,346,
O,412,7114,WESTLAKE AVE,Dallas,TX,75214,HUBER RICHARD G & JERILYNN B,,N,,N,,N,,N,,347,
,413,7102,WESTLAKE AVE,Dallas,TX,75214,MONTGOMERY JAMES B & NANCY T,,N,,N,,N,,N,,348,
,414,6820,MEADOW LAKE CIR,Dallas,TX,75214,MAINZER GREGORY A & EMILY R,,N,,N,,N,,N,,349,
,415,6826,MEADOW LAKE CIR,Dallas,TX,75214,THIAGARAJAH MAHESH C &,,N,,N,,N,,N,,350,
,416,6840,MEADOW LAKE AVE,Dallas,TX,75214,KULOVITZ TAYLOR & SISSY LANE,,N,,N,,N,,N,,351,
,417,6832,MEADOW LAKE AVE,Dallas,TX,75214,LUECKE MARION LU EST OF,,N,,N,,N,,N,,352,
,418,6865,WESTLAKE AVE,Dallas,TX,75214,ASHMORE FRANK JOSEPH,,N,,Y,,N,,N,,353,
,419,6859,WESTLAKE AVE,Dallas,TX,75214,LYLE SHARON E & MARK D MUTSCHINK,,N,,Y,,N,,N,,354,
X,420,6830,LAKESHORE DR,Dallas,TX,75214,RINGWALD JEFFREY CRAIG,,N,,N,,N,,N,,355,
O,421,6818,LAKESHORE DR,Dallas,TX,75214,GOVERNALE STEPHEN J & ALLISON,,N,,N,,N,,N,,356,
,423,6841,LAKESHORE DR,Dallas,TX,75214,SAK LAKESHORE TRUST,,N,,N,,N,,N,,357,
X,424,6848,VELASCO AVE,Dallas,TX,75214,JOHNSON WILLIAM E & NANCY M,,N,,N,,N,,N,,358,
X,425,6838,VELASCO AVE,Dallas,TX,75214,GARSBANE SAMUEL C &,,N,,N,,N,,N,,359,
,426,807,WHITEROCK RD,Dallas,TX,75214,ONCOR ELECRIC DELIVERY COMPANY,,N,,N,,N,,N,,360,
O,427,7304,CROWNRICH LN,Dallas,TX,75214,MCROBERTS NOEL HUNT III,,N,,N,,N,,N,,361,
O,428,7304,CROWNRICH LN,Dallas,TX,75214,MCROBERTS NOEL HUNT III,,X,,X,,N,,N,,362,
,429,7308,CROWNRICH LN,Dallas,TX,75214,CONSTANCE DOZIER,,N,,N,,N,,N,,363,
,430,7308,CROWNRICH LN,Dallas,TX,75214,CONSTANCE DOZIER,,X,,X,,N,,N,,364,
O,431,7312,CROWNRICH LN,Dallas,TX,75214,RASHETA TARA & DAK,,N,,N,,N,,N,,365,
O,432,7312,CROWNRICH LN,Dallas,TX,75214,RASHETA TARA & DAK,,X,,X,,N,,N,,366,
,433,7318,CROWNRICH LN,Dallas,TX,75214,FEHR MICHAEL &,,N,,N,,N,,N,,367,
,434,7318,CROWNRICH LN,Dallas,TX,75214,FEHR MICHAEL &,,X,,X,,N,,N,,368,
,435,7324,CROWNRICH LN,Dallas,TX,75214,MILLS RUSSELL W,,N,,N,,N,,N,,369,
,436,7324,CROWNRICH LN,Dallas,TX,75214,MILLS RUSSELL W,,X,,X,,N,,N,,370,
,437,7328,CROWNRICH LN,Dallas,TX,75214,CHRETIEN ASHLEY VINCENT &,,N,,N,,N,,N,,371,
,438,7328,CROWNRICH LN,Dallas,TX,75214,CHRETIEN ASHLEY VINCENT &,,X,,X,,N,,N,,372,
,439,7334,CROWNRICH LN,Dallas,TX,75214,ELEUTHEROS LIVING TRUST,,N,,N,,N,,N,,373,
,440,7334,CROWNRICH LN,Dallas,TX,75214,ELEUTHEROS LIVING TRUST,,X,,X,,N,,N,,374,
,441,7338,CROWNRICH LN,Dallas,TX,75214,ALLEN BENIMAN J &,,N,,N,,N,,N,,375,
,442,7338,CROWNRICH LN,Dallas,TX,75214,ALLEN BENIMAN J &,,X,,X,,N,,N,,376,
O,443,7344,CROWNRICH LN,Dallas,TX,75214,HANSEN ALICE CAROLYN,,N,,N,,N,,N,,377,
O,444,7344,CROWNRICH LN,Dallas,TX,75214,HANSEN ALICE CAROLYN,,X,,X,,N,,N,,378,
O,445,2631,WHITE ROCK RD,Dallas,TX,75214,FRASER RONALD W &,,N,,N,,N,,N,,379,
X,446,2531,WINSTED DR,Dallas,TX,75214,KIDD KYLE E & MARY N,,N,,N,,N,,N,,380,
,447,9,NO NAME ST,Dallas,TX,75214,LAWTHERWOOD HOMEOWNERS,,X,,X,,N,,N,,381,
X,448,2845,LAWTHERWOOD PL,Dallas,TX,75214,LAWTHERWOOD 1926 LLC,,N,,N,,N,,N,,382,
,449,2851,LAWTHERWOOD PL,Dallas,TX,75214,HACKEDORN & ABOUSSIE FAMILY LIVING TRUST THE,,N,,N,,N,,N,,383,
,450,2857,LAWTHERWOOD PL,Dallas,TX,75214,LEPOW SAM &,,N,,N,,N,,N,,384,
X,451,2863,LAWTHERWOOD PL,Dallas,TX,75214,BOWDEN CULLEN & KATE,,N,,N,,N,,N,,385,
,452,2862,LAWTHERWOOD PL,Dallas,TX,75214,JONES NATHANIEL G & AMANDA J,,N,,N,,N,,N,,386,
X,453,2856,LAWTHERWOOD PL,Dallas,TX,75214,CHAPMAN BRAD & JENNIFER,,N,,N,,N,,N,,387,
,454,2850,LAWTHERWOOD PL,Dallas,TX,75214,PEGASUS CONSTRUCTION,,N,,N,,N,,N,,388,
X,455,2844,LAWTHERWOOD PL,Dallas,TX,75214,OLLENDIKE ERIK & JENNIFER,,N,,N,,N,,N,,389,
O,456,2631,WHITEROCK RD,Dallas,TX,75214,HAFNER RICHARD J &,,N,,N,,N,,N,,390,
O,457,2515,WINSTED DR,Dallas,TX,75214,HAFNER RICHARD J &,,N,,N,,N,,N,,391,
,458,401,S BUCKNER BLVD,Dallas,TX,75214,DART,,X,,X,,N,,N,,392,
X,A1,7015,WESTLAKE AVE,Dallas,TX,75214,7015 WESTLAKE LLC,,Y,,Y,,N,,N,,393,
X,A2,6904,TOKALON DR,Dallas,TX,75214,RICHMOND ROBERT H,,N,,Y,,N,,N,,394,
X,A3,6945,TOKALON DR,Dallas,TX,75214,BROBERG BRADLEY D &,,N,,Y,,N,,N,,395,
X,A4,7028,WESTLAKE AVE,Dallas,TX,75214,7028 WESTLAKE LLC,,Y,,Y,,N,,N,,396,
X,A5,6906,LAKEWOOD BLVD,Dallas,TX,75214,COLLINS JOHN & EMILY,,Y,,Y,,N,,N,,397,
X,A6,6957,LAKESHORE DR,Dallas,TX,75214,COURTWRIGHT GREGORY S &,,N,,Y,,Y,,N,,398,
O,A7,7009,LAKESHORE DR,Dallas,TX,75214,PIERCE GREGORY W &,,Y,,Y,,N,,N,,399,
O,A8,7103,LAKESHORE DR,Dallas,TX,75214,GASPARI REVOCABLE TRUST,,Y,,Y,,N,,N,,400,
O,A9,7117,LAKEWOOD BLVD,Dallas,TX,75214,SLOAN ROBERT SIDNEY III,,Y,,Y,,N,,N,,401,
O,A10,6940,LAKEWOOD BLVD,Dallas,TX,75214,PAYNE GERALD G JR,,Y,,Y,,N,,N,,402,
O,A11,6925,LAKESHORE DR,Dallas,TX,75214,PETERSON NICHOLAS A & CATHERINE E,,N,,Y,,Y,,N,,403,
O,A12,6903,LAKEWOOD BLVD,Dallas,TX,75214,ELLIOTT JAMES R III,,Y,,Y,,N,,N,,404,
O,A13,6934,MEADOW LAKE AVE,Dallas,TX,75214,BARGINEAR CINDY,,N,,N,,N,,N,,405,
O,A14,7010,TOKALON DR,Dallas,TX,75214,RICCIO ANTHONY I & CHRISTINA A,,Y,,Y,,N,,N,,406,
X,A15,6927,TOKALON DR,Dallas,TX,75214,KRAUS FAMILY TRUST,,N,,Y,,N,,N,,407,
X,A16,6901,WESTLAKE AVE,Dallas,TX,75214,TOWNSLEY KENNETH W &,,Y,,Y,,N,,N,,408,
X,A17,6911,WESTLAKE AVE,Dallas,TX,75214,SCHREINER JENNIFER J & KARCH A,,Y,,Y,,N,,N,,409,
X,A18,6934,WESTLAKE AVE,Dallas,TX,75214,GOLD KIMBERLY JANE,,Y,,Y,,N,,N,,410,
X,A19,6937,WESTLAKE AVE,Dallas,TX,75214,FORREST BENJAMIN &,,Y,,Y,,N,,N,,411,
X,A20,6941,WESTLAKE AVE,Dallas,TX,75214,SMITH RYAN R & KAMILIA,,Y,,Y,,N,,N,,412,
X,A21,6945,WESTLAKE AVE,Dallas,TX,75214,STECHER JACK ALFRED & KAREN FLISS STECHER,,Y,,Y,,N,,N,,413,
X,A22,6957,WESTLAKE AVE,Dallas,TX,75214,MOUNTS ROBERT MILLIKEN,,Y,,Y,,Y,,N,,414,
X,A23,6960,WESTLAKE AVE,Dallas,TX,75214,ROSCOPF CHARLES JR &,,Y,,Y,,N,,N,,415,
X,A24,6964,WESTLAKE AVE,Dallas,TX,75214,JOHNS WADE BULLARD,,Y,,Y,,N,,N,,416,
X,A25,7019,WESTLAKE AVE,Dallas,TX,75214,PRUDHOMME JEFFREY TODD,,Y,,Y,,N,,N,,417,
X,A26,7026,WESTLAKE AVE,Dallas,TX,75214,ACREE DAVID B &,,Y,,Y,,N,,N,,418,
X,A27,7003,WESTLAKE AVE,Dallas,TX,75214,WILLIAMS LARRY J &,,Y,,Y,,Y,,N,,419,
X,A28,7227,LAKEWOOD BLVD,Dallas,TX,75214,VOWINKLE ELIZABETH A & RYAN,,Y,,Y,,N,,N,,420,
X,A29,6855,LAKEWOOD BLVD,Dallas,TX,75214,HUTTO STEPHEN D & AMANDA,,N,,Y,,N,,N,,421,
O,A30,6826,LAKESHORE DR,Dallas,TX,75214,MURRAY MICHAEL J &,,N,,Y,,N,,N,,422,
O,A31,7040,TOKALON DR,Dallas,TX,75214,WHITFILL JOHN M,,Y,,Y,,Y,,N,,423,
O,A32,6945,LAKESHORE DR,Dallas,TX,75214,PUTMAN JOHN MICHAEL,,N,,Y,,N,,N,,424,
O,A33,7034,LAKEWOOD BLVD,Dallas,TX,75214,JACOBSON CLIFTON S,,Y,,Y,,Y,,N,,425,
X,A34,7002,LAKEWOOD BLVD,Dallas,TX,75214,WELCH TERRY BRENT &,,N,,Y,,N,,N,,426,
X,A35,7209,LAKEWOOD BLVD,Dallas,TX,75214,PITTS & ROGERS REVOCABLE LIVING,,Y,,Y,,N,,N,,427,
X,A36,7122,LAKEWOOD BLVD,Dallas,TX,75214,MCELROY TRAVIS &,,Y,,Y,,N,,N,,428,
X,A37,7202,LAKEWOOD BLVD,Dallas,TX,75214,GIAMELLO ANTHONY,,N,,Y,,N,,N,,429,
X,A38,7215,LAKEWOOD BLVD,Dallas,TX,75214,LAMONT JEFFREY & ASHLEY GWYN,,Y,,Y,,N,,N,,430,
X,A39,6847,LAKESHORE DR,Dallas,TX,75214,MAY BETTY BILLINGS LIFE ESTATE,,N,,Y,,N,,N,,431,
X,A40,6855,LAKESHORE DR,Dallas,TX,75214,GUNNING THOMAS C III &,,N,,Y,,N,,N,,432,
X,A41,6865,LAKESHORE DR,Dallas,TX,75214,KING CHRISTOPHER KEVIN &,,N,,Y,,N,,N,,433,
X,A42,6955,LAKESHORE DR,Dallas,TX,75214,MOORE RICHARD G & ALISON,,N,,Y,,N,,N,,434,
X,A43,6960,LAKESHORE DR,Dallas,TX,75214,STANFORD DONALD G &,,N,,Y,,N,,N,,435,
X,A44,7007,LAKESHORE DR,Dallas,TX,75214,WEBSTER AL T & BEVERLY E,,Y,,Y,,N,,N,,436,
X,A45,7025,LAKESHORE DR,Dallas,TX,75214,WALKER ERIC D & ANGELA FIELDS,,Y,,Y,,N,,N,,437,
X,A46,7038,LAKESHORE DR,Dallas,TX,75214,MALA DENO,,Y,,Y,,N,,N,,438,
X,A47,6865,TOKALON DR,Dallas,TX,75214,STARCHER JENNY A,,N,,Y,,N,,N,,439,
X,A48,6870,TOKALON DR,Dallas,TX,75214,ADAMS ANTHONY A & CARRIE L,,N,,Y,,Y,,N,,440,
X,A49,6858,TOKALON DR,Dallas,TX,75214,CARTER CLAYTON,,N,,Y,,N,,N,,441,
X,A50,6964,TOKALON DR,Dallas,TX,75214,STAFF JAMES R & ROXAN S,,N,,Y,,Y,,N,,442,
X,A51,6914,TOKALON DR,Dallas,TX,75214,SECKER FAMILY LIVING TRUST THE,,N,,Y,,N,,N,,443,
X,A52,6950,TOKALON DR,Dallas,TX,75214,GORMAN DAVID MATTHEW &,,N,,Y,,N,,N,,444,
X,A53,7019,TOKALON DR,Dallas,TX,75214,CHAPPELEAR BONNIE &,,Y,,Y,,Y,,N,,445,
X,A54,7022,TOKALON DR,Dallas,TX,75214,SCHULZ TOM W,,Y,,Y,,N,,N,,446,
X,A55,7148,TOKALON DR,Dallas,TX,75214,LUBY JOSEPH O II & WENDY E,,N,,Y,,N,,N,,447,
X,A56,7317,TOKALON DR,Dallas,TX,75214,GUFFEY CHARLOTTE,,N,,Y,,N,,N,,448,
X,A57,7303,TOKALON DR,Dallas,TX,75214,GILKER CHRISTOPHER J &,,N,,Y,,N,,N,,449,
X,A58,6832,AVALON AVE,Dallas,TX,75214,KESSLER JOAN C & GARY S,,N,,N,,N,,N,,450,
X,A59,6873,BURWOOD LN,Dallas,TX,75214,JOHNSON ERIC W,,N,,N,,N,,N,,451,
X,A60,6849,LAKEWOOD BLVD,Dallas,TX,75214,JOHNSON ERIC W,,N,,Y,,N,,N,,452,
X,A61,2432,HIDEAWAY DR,Dallas,TX,75214,BLACK CHRISTOPHER WILLIAM &,,N,,Y,,Y,,N,,453,
X,A62,2431,HIDEAWAY DR,Dallas,TX,75214,ERDMAN KATHLEEN B,,N,,Y,,N,,N,,454,
X,A63,2425,HIDEAWAY DR,Dallas,TX,75214,MORRIS ALLEN R EST OF,,N,,Y,,N,,N,,455,
X,A64,7041,TOKALON DR,Dallas,TX,75214,BOWMAN ALFRED W ETAL,,Y,,Y,,N,,N,,456,
X,A65,7131,TOKALON DR,Dallas,TX,75214,TRIPLETT RICHARD N,,N,,Y,,N,,N,,457,
X,A66,7023,WESTLAKE AVE,Dallas,TX,75214,BREEDLOVE JOHN,,Y,,Y,,N,,N,,458,
X,A67,6921,WESTLAKE AVE,Dallas,TX,75214,GORSUCH JASON R & LINDSEY T,,Y,,Y,,N,,N,,459,
O,A68,6922,WESTLAKE AVE,Dallas,TX,75214,WALKER JESSICA,,Y,,Y,,N,,N,,460,
